[
    {
        "Altitude(m)": 617719.7381269622,
        "Argument of Periapsis(deg)": 0.0,
        "Eccentricity": 0.0,
        "Inclination(deg)": 60.0,
        "Latitude(deg)": -41.10255126585029,
        "Longitude(deg)": 35.09471253928157,
        "Mean Anomaly(deg)": -130.90909999999997,
        "RAAN(deg)": 285.0,
        "Satellite Name": "Test1 1268",
        "Satellite Number": 1268,
        "Semi-Major Axis(m)": 6980739.136638005,
        "Time(s)": 0
    },
    {
        "Altitude(m)": 617911.2737176401,
        "Argument of Periapsis(deg)": 0.00010418945913296404,
        "Eccentricity": 0.0,
        "Inclination(deg)": 60.0,
        "Latitude(deg)": -41.56574258807407,
        "Longitude(deg)": 35.59911947321378,
        "Mean Anomaly(deg)": -130.2889938545381,
        "RAAN(deg)": 284.9995799508602,
        "Satellite Name": "Test1 1268",
        "Satellite Number": 1268,
        "Semi-Major Axis(m)": 6980739.136638005,
        "Time(s)": 10
    },
    {
        "Altitude(m)": 618101.6840886177,
        "Argument of Periapsis(deg)": 0.0002083789182659281,
        "Eccentricity": 0.0,
        "Inclination(deg)": 60.0,
        "Latitude(deg)": -42.026255402904,
        "Longitude(deg)": 36.111333761252546,
        "Mean Anomaly(deg)": -129.66888770907624,
        "RAAN(deg)": 284.9991599017205,
        "Satellite Name": "Test1 1268",
        "Satellite Number": 1268,
        "Semi-Major Axis(m)": 6980739.136638005,
        "Time(s)": 20
    },
    {
        "Altitude(m)": 618290.8962126954,
        "Argument of Periapsis(deg)": 0.00031256837739889213,
        "Eccentricity": 0.0,
        "Inclination(deg)": 60.0,
        "Latitude(deg)": -42.484009463702726,
        "Longitude(deg)": 36.631550087155276,
        "Mean Anomaly(deg)": -129.04878156361445,
        "RAAN(deg)": 284.9987398525808,
        "Satellite Name": "Test1 1268",
        "Satellite Number": 1268,
        "Semi-Major Axis(m)": 6980739.136638005,
        "Time(s)": 30
    },
    {
        "Altitude(m)": 618478.8374399015,
        "Argument of Periapsis(deg)": 0.0004167578365318562,
        "Eccentricity": 0.0,
        "Inclination(deg)": 60.0,
        "Latitude(deg)": -42.938921998793795,
        "Longitude(deg)": 37.15996692827494,
        "Mean Anomaly(deg)": -128.4286754181526,
        "RAAN(deg)": 284.998319803441,
        "Satellite Name": "Test1 1268",
        "Satellite Number": 1268,
        "Semi-Major Axis(m)": 6980739.136638005,
        "Time(s)": 40
    },
    {
        "Altitude(m)": 618665.4355291164,
        "Argument of Periapsis(deg)": 0.0005209472956648203,
        "Eccentricity": 0.0,
        "Inclination(deg)": 60.0,
        "Latitude(deg)": -43.39090763335165,
        "Longitude(deg)": 37.696785457642335,
        "Mean Anomaly(deg)": -127.80856927269083,
        "RAAN(deg)": 284.9978997543013,
        "Satellite Name": "Test1 1268",
        "Satellite Number": 1268,
        "Semi-Major Axis(m)": 6980739.136638005,
        "Time(s)": 50
    },
    {
        "Altitude(m)": 618850.6186795408,
        "Argument of Periapsis(deg)": 0.0006251367547977843,
        "Eccentricity": 0.0,
        "Inclination(deg)": 60.0,
        "Latitude(deg)": -43.839878310648466,
        "Longitude(deg)": 38.242209939169335,
        "Mean Anomaly(deg)": -127.18846312722899,
        "RAAN(deg)": 284.99747970516154,
        "Satellite Name": "Test1 1268",
        "Satellite Number": 1268,
        "Semi-Major Axis(m)": 6980739.136638005,
        "Time(s)": 60
    },
    {
        "Altitude(m)": 619034.3155619238,
        "Argument of Periapsis(deg)": 0.0007293262139307483,
        "Eccentricity": 0.0,
        "Inclination(deg)": 60.0,
        "Latitude(deg)": -44.285743212891724,
        "Longitude(deg)": 38.796448101234425,
        "Mean Anomaly(deg)": -126.56835698176718,
        "RAAN(deg)": 284.9970596560218,
        "Satellite Name": "Test1 1268",
        "Satellite Number": 1268,
        "Semi-Major Axis(m)": 6980739.136638005,
        "Time(s)": 70
    },
    {
        "Altitude(m)": 619216.4553495735,
        "Argument of Periapsis(deg)": 0.0008335156730637124,
        "Eccentricity": 0.0,
        "Inclination(deg)": 60.0,
        "Latitude(deg)": -44.72840868192216,
        "Longitude(deg)": 39.35970997379298,
        "Mean Anomaly(deg)": -125.94825083630533,
        "RAAN(deg)": 284.99663960688207,
        "Satellite Name": "Test1 1268",
        "Satellite Number": 1268,
        "Semi-Major Axis(m)": 6980739.136638005,
        "Time(s)": 80
    },
    {
        "Altitude(m)": 619396.9677491244,
        "Argument of Periapsis(deg)": 0.0009377051321966765,
        "Eccentricity": 0.0,
        "Inclination(deg)": 60.0,
        "Latitude(deg)": -45.16777814006842,
        "Longitude(deg)": 39.93220821265007,
        "Mean Anomaly(deg)": -125.32814469084357,
        "RAAN(deg)": 284.9962195577423,
        "Satellite Name": "Test1 1268",
        "Satellite Number": 1268,
        "Semi-Major Axis(m)": 6980739.136638005,
        "Time(s)": 90
    },
    {
        "Altitude(m)": 619575.7830310361,
        "Argument of Periapsis(deg)": 0.0010418945913296407,
        "Eccentricity": 0.0,
        "Inclination(deg)": 60.0,
        "Latitude(deg)": -45.60375201150453,
        "Longitude(deg)": 40.51415839579946,
        "Mean Anomaly(deg)": -124.70803854538173,
        "RAAN(deg)": 284.99579950860254,
        "Satellite Name": "Test1 1268",
        "Satellite Number": 1268,
        "Semi-Major Axis(m)": 6980739.136638005,
        "Time(s)": 100
    },
    {
        "Altitude(m)": 619752.8320598276,
        "Argument of Periapsis(deg)": 0.0011460840504626045,
        "Eccentricity": 0.0,
        "Inclination(deg)": 60.0,
        "Latitude(deg)": -46.0362276444955,
        "Longitude(deg)": 41.10577777661244,
        "Mean Anomaly(deg)": -124.08793239991982,
        "RAAN(deg)": 284.99537945946287,
        "Satellite Name": "Test1 1268",
        "Satellite Number": 1268,
        "Semi-Major Axis(m)": 6980739.136638005,
        "Time(s)": 110
    },
    {
        "Altitude(m)": 619928.0463240425,
        "Argument of Periapsis(deg)": 0.0012502735095955685,
        "Eccentricity": 0.0,
        "Inclination(deg)": 60.0,
        "Latitude(deg)": -46.465099234959936,
        "Longitude(deg)": 41.707285517165516,
        "Mean Anomaly(deg)": -123.46782625445807,
        "RAAN(deg)": 284.9949594103231,
        "Satellite Name": "Test1 1268",
        "Satellite Number": 1268,
        "Semi-Major Axis(m)": 6980739.136638005,
        "Time(s)": 120
    },
    {
        "Altitude(m)": 620101.3579658901,
        "Argument of Periapsis(deg)": 0.0013544629687285324,
        "Eccentricity": 0.0,
        "Inclination(deg)": 60.0,
        "Latitude(deg)": -46.890257751832856,
        "Longitude(deg)": 42.31890288627134,
        "Mean Anomaly(deg)": -122.84772010899621,
        "RAAN(deg)": 284.99453936118334,
        "Satellite Name": "Test1 1268",
        "Satellite Number": 1268,
        "Semi-Major Axis(m)": 6980739.136638005,
        "Time(s)": 130
    },
    {
        "Altitude(m)": 620272.6998106297,
        "Argument of Periapsis(deg)": 0.0014586524278614966,
        "Eccentricity": 0.0,
        "Inclination(deg)": 60.0,
        "Latitude(deg)": -47.31159086476455,
        "Longitude(deg)": 42.94085190667548,
        "Mean Anomaly(deg)": -122.22761396353437,
        "RAAN(deg)": 284.99411931204355,
        "Satellite Name": "Test1 1268",
        "Satellite Number": 1268,
        "Semi-Major Axis(m)": 6980739.136638005,
        "Time(s)": 140
    },
    {
        "Altitude(m)": 620442.0053955609,
        "Argument of Periapsis(deg)": 0.0015628418869944607,
        "Eccentricity": 0.0,
        "Inclination(deg)": 60.0,
        "Latitude(deg)": -47.72898287474568,
        "Longitude(deg)": 43.57335547441657,
        "Mean Anomaly(deg)": -121.60750781807256,
        "RAAN(deg)": 284.9936992629039,
        "Satellite Name": "Test1 1268",
        "Satellite Number": 1268,
        "Semi-Major Axis(m)": 6980739.136638005,
        "Time(s)": 150
    },
    {
        "Altitude(m)": 620609.2089987638,
        "Argument of Periapsis(deg)": 0.0016670313461274247,
        "Eccentricity": 0.0,
        "Inclination(deg)": 60.0,
        "Latitude(deg)": -48.142314648311284,
        "Longitude(deg)": 44.216637434651325,
        "Mean Anomaly(deg)": -120.98740167261072,
        "RAAN(deg)": 284.99327921376414,
        "Satellite Name": "Test1 1268",
        "Satellite Number": 1268,
        "Semi-Major Axis(m)": 6980739.136638005,
        "Time(s)": 160
    },
    {
        "Altitude(m)": 620774.2456674302,
        "Argument of Periapsis(deg)": 0.0017712208052603888,
        "Eccentricity": 0.0,
        "Inclination(deg)": 60.0,
        "Latitude(deg)": -48.55146355604384,
        "Longitude(deg)": 44.870921098202984,
        "Mean Anomaly(deg)": -120.36729552714885,
        "RAAN(deg)": 284.99285916462435,
        "Satellite Name": "Test1 1268",
        "Satellite Number": 1268,
        "Semi-Major Axis(m)": 6980739.136638005,
        "Time(s)": 170
    },
    {
        "Altitude(m)": 620937.0512458866,
        "Argument of Periapsis(deg)": 0.001875410264393353,
        "Eccentricity": 0.0,
        "Inclination(deg)": 60.0,
        "Latitude(deg)": -48.95630341615467,
        "Longitude(deg)": 45.53642922166771,
        "Mean Anomaly(deg)": -119.74718938168701,
        "RAAN(deg)": 284.9924391154846,
        "Satellite Name": "Test1 1268",
        "Satellite Number": 1268,
        "Semi-Major Axis(m)": 6980739.136638005,
        "Time(s)": 180
    },
    {
        "Altitude(m)": 621097.5624032192,
        "Argument of Periapsis(deg)": 0.0019795997235263173,
        "Eccentricity": 0.0,
        "Inclination(deg)": 60.0,
        "Latitude(deg)": -49.356704444000115,
        "Longitude(deg)": 46.213383935306844,
        "Mean Anomaly(deg)": -119.1270832362252,
        "RAAN(deg)": 284.99201906634494,
        "Satellite Name": "Test1 1268",
        "Satellite Number": 1268,
        "Semi-Major Axis(m)": 6980739.136638005,
        "Time(s)": 190
    }
]